NORAD_CAT_ID,OBJECT_NAME,OBJECT_TYPE,EPOCH,MEAN_MOTION,ECCENTRICITY,INCLINATION,RA_OF_ASC_NODE,ARG_OF_PERICENTER,MEAN_ANOMALY,BSTAR,MEAN_MOTION_DOT,MEAN_MOTION_DDOT,TLE_LINE0,TLE_LINE1,TLE_LINE2,SEMIMAJOR_AXIS,PERIOD,APOGEE,PERIGEE,DECAYED
50819.0,STARLINK-3327,PAYLOAD,2022-05-27 22:00:01,15.08870324,0.0001578,53.2155,252.1236,50.6834,210.8634,-0.0044397,-0.00070315,0.0,0 STARLINK-3327,1 50819U 22001S   22147.91668981 -.00070315  00000-0 -44397-2 0  9999,2 50819  53.2155 252.1236 0001578  50.6834 210.8634 15.08870324  1300,6917.788000000001,95.436,540.744,538.561,0.0
50819.0,STARLINK-3327,PAYLOAD,2022-05-28 06:00:02,15.08816141,0.0001559,53.2155,250.6261,58.9431,214.2071,0.002648,0.00042079,0.0,0 STARLINK-3327,1 50819U 22001S   22148.25002315  .00042079  00000-0  26480-2 0  9997,2 50819  53.2155 250.6261 0001559  58.9431 214.2071 15.08816141 23061,6917.953,95.439,540.8969999999998,538.74,0.0
50819.0,STARLINK-3327,PAYLOAD,2022-05-28 12:44:37,15.08836806,0.0001657,53.2174,249.3663,54.3829,305.7318,3.6033e-05,2.85e-06,0.0,0 STARLINK-3327,1 50819U 22001S   22148.53098449  .00000285  00000-0  36033-4 0  9991,2 50819  53.2174 249.3663 0001657  54.3829 305.7318 15.08836806 21904,6917.89,95.438,540.901,538.609,0.0
50819.0,STARLINK-3327,PAYLOAD,2022-05-28 19:06:09,15.08836387,0.0001665,53.2175,248.1767,54.557,305.5578,4.754e-05,4.69e-06,0.0,0 STARLINK-3327,1 50819U 22001S   22148.79594467  .00000469  00000-0  47540-4 0  9999,2 50819  53.2175 248.1767 0001665  54.5570 305.5578 15.08836387 23149,6917.891,95.438,540.908,538.605,0.0
50819.0,STARLINK-3327,PAYLOAD,2022-05-29 14:00:01,15.08840377,0.0001638,53.2156,244.6425,47.67,271.8286,-0.0034318,-0.00054493,0.0,0 STARLINK-3327,1 50819U 22001S   22149.58334491 -.00054493  00000-0 -34318-2 0  9991,2 50819  53.2156 244.6425 0001638  47.6700 271.8286 15.08840377  1307,6917.879,95.438,540.877,538.611,0.0
50819.0,STARLINK-3327,PAYLOAD,2022-05-29 22:00:00,15.08820793,0.0001609,53.2154,243.1453,47.1349,283.9415,-0.0020395,-0.00032583,0.0,0 STARLINK-3327,1 50819U 22001S   22149.91667824 -.00032583  00000-0 -20395-2 0  9993,2 50819  53.2154 243.1453 0001609  47.1349 283.9415 15.08820793 23315,6917.939,95.439,540.9169999999998,538.691,0.0
50819.0,STARLINK-3327,PAYLOAD,2022-05-30 14:00:01,15.08809317,0.0001747,53.2156,240.1537,48.0712,306.1248,0.0010027,0.00015693,0.0,0 STARLINK-3327,1 50819U 22001S   22150.58334491  .00015693  00000-0  10027-2 0  9991,2 50819  53.2156 240.1537 0001747  48.0712 306.1248 15.08809317 23416,6917.974,95.439,541.048,538.631,0.0
50819.0,STARLINK-3327,PAYLOAD,2022-05-30 22:00:00,15.08840519,0.0001667,53.2156,238.6564,47.64,318.1179,-0.0016078,-0.00025786,0.0,0 STARLINK-3327,1 50819U 22001S   22150.91667824 -.00025786  00000-0 -16078-2 0  9995,2 50819  53.2156 238.6564 0001667  47.6400 318.1179 15.08840519  1307,6917.879,95.438,540.8969999999998,538.591,0.0
50819.0,STARLINK-3327,PAYLOAD,2022-05-31 06:00:02,15.08829318,0.0001604,53.2159,237.1593,53.4511,323.9493,0.0015155,0.00023906,0.0,0 STARLINK-3327,1 50819U 22001S   22151.25002315  .00023906  00000-0  15155-2 0  9996,2 50819  53.2159 237.1593 0001604  53.4511 323.9493 15.08829318  1302,6917.913000000001,95.438,540.888,538.668,0.0
50819.0,STARLINK-3327,PAYLOAD,2022-05-31 22:00:00,15.08860994,0.0001685,53.2157,234.1673,48.3943,352.1288,-0.0015009,-0.00024109,0.0,0 STARLINK-3327,1 50819U 22001S   22151.91667824 -.00024109  00000-0 -15009-2 0  9997,2 50819  53.2157 234.1673 0001685  48.3943 352.1288 15.08860994 23616,6917.816,95.436,540.847,538.516,0.0
50819.0,STARLINK-3327,PAYLOAD,2022-06-01 14:00:01,15.08857922,0.0001753,53.2158,231.1758,45.429,18.3231,-0.001588,-0.00025485,0.0,0 STARLINK-3327,1 50819U 22001S   22152.58334491 -.00025485  00000-0 -15880-2 0  9997,2 50819  53.2158 231.1758 0001753  45.4290  18.3231 15.08857922 23714,6917.826,95.436,540.903,538.4780000000002,0.0
50819.0,STARLINK-3327,PAYLOAD,2022-06-01 20:00:01,15.08854724,0.000164,53.2153,230.0527,43.2618,299.1966,-0.0017449,-0.00027962,0.0,0 STARLINK-3327,1 50819U 22001S   22152.83334491 -.00027962  00000-0 -17449-2 0  9990,2 50819  53.2153 230.0527 0001640  43.2618 299.1966 15.08854724  1308,6917.835,95.437,540.835,538.566,0.0
50819.0,STARLINK-3327,PAYLOAD,2022-06-02 21:30:51,15.08843288,0.0001723,53.2172,225.2803,53.9615,306.1537,1.7557e-05,-9e-08,0.0,0 STARLINK-3327,1 50819U 22001S   22153.89643209 -.00000009  00000-0  17557-4 0  9991,2 50819  53.2172 225.2803 0001723  53.9615 306.1537 15.08843288 23916,6917.87,95.437,540.927,538.543,0.0
50819.0,STARLINK-3327,PAYLOAD,2022-06-03 10:13:56,15.08850674,0.0001689,53.2169,222.9009,52.0902,308.0242,2.9325e-07,-2.83e-06,0.0,0 STARLINK-3327,1 50819U 22001S   22154.42634508 -.00000283  00000-0  29325-6 0  9995,2 50819  53.2169 222.9009 0001689  52.0902 308.0242 15.08850674 22790,6917.848000000001,95.437,540.881,538.544,0.0
50819.0,STARLINK-3327,PAYLOAD,2022-06-03 21:21:38,15.08840026,0.0001465,53.2154,220.8185,37.1866,322.9227,-9.0104e-05,-1.722e-05,0.0,0 STARLINK-3327,1 50819U 22001S   22154.89003303 -.00001722  00000-0 -90104-4 0  9990,2 50819  53.2154 220.8185 0001465  37.1866 322.9227 15.08840026 22867,6917.88,95.438,540.759,538.732,0.0
50819.0,STARLINK-3327,PAYLOAD,2022-06-04 03:43:11,15.08834856,0.0001576999999999,53.2165,219.6292,47.7123,312.4002,-1.2865999999999997e-05,-4.93e-06,0.0,0 STARLINK-3327,1 50819U 22001S   22155.15499409 -.00000493  00000-0 -12866-4 0  9999,2 50819  53.2165 219.6292 0001577  47.7123 312.4002 15.08834856 24109,6917.896,95.438,540.852,538.67,0.0
50819.0,STARLINK-3327,PAYLOAD,2022-06-04 11:40:07,15.08836748,0.0001571,53.2171,218.1423,46.5482,313.564,-1.3047e-05,-4.96e-06,0.0,0 STARLINK-3327,1 50819U 22001S   22155.48619338 -.00000496  00000-0 -13047-4 0  9995,2 50819  53.2171 218.1423 0001571  46.5482 313.5640 15.08836748 22958,6917.89,95.438,540.842,538.669,0.0
50819.0,STARLINK-3327,PAYLOAD,2022-06-05 22:00:00,15.08833871,0.0001763,53.216,211.7213,52.0347,162.4894,-0.0012371,-0.00019919,0.0,0 STARLINK-3327,1 50819U 22001S   22156.91667824 -.00019919  00000-0 -12371-2 0  9994,2 50819  53.2160 211.7213 0001763  52.0347 162.4894 15.08833871 24360,6917.899,95.438,540.984,538.544,0.0
50819.0,STARLINK-3327,PAYLOAD,2022-06-06 14:00:01,15.0880203,0.0002008,53.2162,208.7303,48.8948,188.7896,0.0029667,0.00047195,0.0,0 STARLINK-3327,1 50819U 22001S   22157.58334491  .00047195  00000-0  29667-2 0  9990,2 50819  53.2162 208.7303 0002008  48.8948 188.7896 15.08802030  1306,6917.996,95.44,541.251,538.472,0.0
50819.0,STARLINK-3327,PAYLOAD,2022-06-06 20:54:00,15.08832177,0.0001935,53.2195,207.4382,54.8526,305.2647,-4.5736e-05,-1.016e-05,0.0,0 STARLINK-3327,1 50819U 22001S   22157.87083888 -.00001016  00000-0 -45736-4 0  9994,2 50819  53.2195 207.4382 0001935  54.8526 305.2647 15.08832177 24515,6917.904,95.438,541.1080000000002,538.431,0.0
50819.0,STARLINK-3327,PAYLOAD,2022-06-07 09:37:05,15.08837922,0.000191,53.2189,205.0592,54.5813,305.5357,-1.6948e-05,-5.58e-06,0.0,0 STARLINK-3327,1 50819U 22001S   22158.40075501 -.00000558  00000-0 -16948-4 0  9990,2 50819  53.2189 205.0592 0001910  54.5813 305.5357 15.08837922 24596,6917.887,95.438,541.073,538.43,0.0
50819.0,STARLINK-3327,PAYLOAD,2022-06-08 09:27:51,15.08840051,0.000192,53.218,200.5988,53.4059,306.711,7.1415e-05,8.49e-06,0.0,0 STARLINK-3327,1 50819U 22001S   22159.39435028  .00000849  00000-0  71415-4 0  9994,2 50819  53.2180 200.5988 0001920  53.4059 306.7110 15.08840051 23548,6917.88,95.438,541.073,538.4169999999998,0.0
50819.0,STARLINK-3327,PAYLOAD,2022-06-09 12:29:26,15.0883311,0.0001931,53.2181,195.544,52.6755,307.4413,-3.1095e-05,-7.83e-06,0.0,0 STARLINK-3327,1 50819U 22001S   22160.52044003 -.00000783  00000-0 -31095-4 0  9999,2 50819  53.2181 195.5440 0001931  52.6755 307.4413 15.08833110 23712,6917.901,95.438,541.102,538.431,0.0
50819.0,STARLINK-3327,PAYLOAD,2022-06-09 18:50:58,15.08833087,0.0001937,53.218,194.3547,52.7065,307.4103,-4.536600000000001e-05,-1.01e-05,0.0,0 STARLINK-3327,1 50819U 22001S   22160.78540137 -.00001010  00000-0 -45366-4 0  9996,2 50819  53.2180 194.3547 0001937  52.7065 307.4103 15.08833087 24953,6917.901999999999,95.438,541.107,538.427,0.0
50819.0,STARLINK-3327,PAYLOAD,2022-06-10 09:09:26,15.08837431,0.0001927,53.2177,191.678,51.3262,308.7902,-3.7288e-05,-8.82e-06,0.0,0 STARLINK-3327,1 50819U 22001S   22161.38155968 -.00000882  00000-0 -37288-4 0  9997,2 50819  53.2177 191.6780 0001927  51.3262 308.7902 15.08837431 23846,6917.888000000001,95.438,541.086,538.42,0.0
50819.0,STARLINK-3327,PAYLOAD,2022-06-10 18:41:45,15.08837558,0.000196,53.2177,189.8938,51.4509,308.6659,-1.7995e-05,-5.75e-06,0.0,0 STARLINK-3327,1 50819U 22001S   22161.77899961 -.00000575  00000-0 -17995-4 0  9990,2 50819  53.2177 189.8938 0001960  51.4509 308.6659 15.08837558 25101,6917.888000000001,95.438,541.109,538.3969999999998,0.0
50819.0,STARLINK-3327,PAYLOAD,2022-06-11 18:32:32,15.08836597,0.0001991,53.2175,185.4336,52.8513,307.266,6.4878e-05,7.44e-06,0.0,0 STARLINK-3327,1 50819U 22001S   22162.77259902  .00000744  00000-0  64878-4 0  9994,2 50819  53.2175 185.4336 0001991  52.8513 307.2660 15.08836597 24059,6917.891,95.438,541.133,538.378,0.0
50819.0,STARLINK-3327,PAYLOAD,2022-06-12 04:04:51,15.08839765,0.0002017,53.2175,183.6494,53.2101,306.9076,6.1751e-05,6.95e-06,0.0,0 STARLINK-3327,1 50819U 22001S   22163.17003744  .00000695  00000-0  61751-4 0  9992,2 50819  53.2175 183.6494 0002017  53.2101 306.9076 15.08839765 25319,6917.880999999999,95.438,541.141,538.351,0.0
50819.0,STARLINK-3327,PAYLOAD,2022-06-12 10:26:23,15.08841591,0.0002033,53.2175,182.4599,53.2738,306.8441,5.9639e-05,6.61e-06,0.0,0 STARLINK-3327,1 50819U 22001S   22163.43499619  .00000661  00000-0  59639-4 0  9996,2 50819  53.2175 182.4599 0002033  53.2738 306.8441 15.08841591 24152,6917.876,95.437,541.1469999999998,538.3340000000002,0.0
